[{"OBJECT_NAME":"STARLINK-1307","OBJECT_ID":"2020-019AP","EPOCH":"2026-03-09T11:44:39.008832","MEAN_MOTION":15.50016975,"ECCENTRICITY":0.00021358,"INCLINATION":53.0547,"RA_OF_ASC_NODE":131.7054,"ARG_OF_PERICENTER":40.91,"MEAN_ANOMALY":319.2068,"EPHEMERIS_TYPE":0,"CLASSIFICATION_TYPE":"U","NORAD_CAT_ID":45397,"ELEMENT_SET_NO":999,"REV_AT_EPOCH":33002,"BSTAR":0.00043970395,"MEAN_MOTION_DOT":0.00024703,"MEAN_MOTION_DDOT":0},{"OBJECT_NAME":"STARLINK-1805","OBJECT_ID":"2020-073AM","EPOCH":"2026-03-10T00:00:02.999808","MEAN_MOTION":15.51869565,"ECCENTRICITY":0.00030988,"INCLINATION":53.0508,"RA_OF_ASC_NODE":242.0948,"ARG_OF_PERICENTER":228.6165,"MEAN_ANOMALY":7.6638,"EPHEMERIS_TYPE":0,"CLASSIFICATION_TYPE":"U","NORAD_CAT_ID":46705,"ELEMENT_SET_NO":999,"REV_AT_EPOCH":585,"BSTAR":0.0025078624,"MEAN_MOTION_DOT":0.00155383,"MEAN_MOTION_DDOT":0}]
